[
    {
        "Altitude(m)": 571727.8630814877,
        "Argument of Periapsis(deg)": 0.019868973332140504,
        "Eccentricity": 0.0,
        "Inclination(deg)": 53.0,
        "Latitude(deg)": -52.84540922718884,
        "Longitude(deg)": 89.10550934011088,
        "Mean Anomaly(deg)": -95.1797213972672,
        "RAAN(deg)": 289.97043010558406,
        "Satellite Name": "Starlink Shell 1 1290",
        "Satellite Number": 1290,
        "Semi-Major Axis(m)": 6931778.249405717,
        "Time(s)": 570
    },
    {
        "Altitude(m)": 571754.58074732,
        "Argument of Periapsis(deg)": 0.02021755181165174,
        "Eccentricity": 0.0,
        "Inclination(deg)": 53.0,
        "Latitude(deg)": -52.914864009465745,
        "Longitude(deg)": 90.09010189244772,
        "Mean Anomaly(deg)": -94.55289019371043,
        "RAAN(deg)": 289.9699113355066,
        "Satellite Name": "Starlink Shell 1 1290",
        "Satellite Number": 1290,
        "Semi-Major Axis(m)": 6931778.249405717,
        "Time(s)": 580
    },
    {
        "Altitude(m)": 571777.8534544525,
        "Argument of Periapsis(deg)": 0.020566130291162974,
        "Eccentricity": 0.0,
        "Inclination(deg)": 53.0,
        "Latitude(deg)": -52.975437380161615,
        "Longitude(deg)": 91.07776626322105,
        "Mean Anomaly(deg)": -93.92605899015382,
        "RAAN(deg)": 289.9693925654292,
        "Satellite Name": "Starlink Shell 1 1290",
        "Satellite Number": 1290,
        "Semi-Major Axis(m)": 6931778.249405717,
        "Time(s)": 590
    },
    {
        "Altitude(m)": 571797.6718931961,
        "Argument of Periapsis(deg)": 0.020914708770674213,
        "Eccentricity": 0.0,
        "Inclination(deg)": 53.0,
        "Latitude(deg)": -53.02708536061838,
        "Longitude(deg)": 92.06809491979928,
        "Mean Anomaly(deg)": -93.29922778659716,
        "RAAN(deg)": 289.96887379535167,
        "Satellite Name": "Starlink Shell 1 1290",
        "Satellite Number": 1290,
        "Semi-Major Axis(m)": 6931778.249405717,
        "Time(s)": 600
    },
    {
        "Altitude(m)": 571814.0281319252,
        "Argument of Periapsis(deg)": 0.021263287250185448,
        "Eccentricity": 0.0,
        "Inclination(deg)": 53.0,
        "Latitude(deg)": -53.06977022592265,
        "Longitude(deg)": 93.06067257751609,
        "Mean Anomaly(deg)": -92.67239658304035,
        "RAAN(deg)": 289.96835502527415,
        "Satellite Name": "Starlink Shell 1 1290",
        "Satellite Number": 1290,
        "Semi-Major Axis(m)": 6931778.249405717,
        "Time(s)": 610
    },
    {
        "Altitude(m)": 571826.9156205092,
        "Argument of Periapsis(deg)": 0.021611865729696686,
        "Eccentricity": 0.0,
        "Inclination(deg)": 53.0,
        "Latitude(deg)": -53.103460639575594,
        "Longitude(deg)": 94.05507785709041,
        "Mean Anomaly(deg)": -92.04556537948362,
        "RAAN(deg)": 289.96783625519674,
        "Satellite Name": "Starlink Shell 1 1290",
        "Satellite Number": 1290,
        "Semi-Major Axis(m)": 6931778.249405717,
        "Time(s)": 620
    },
    {
        "Altitude(m)": 571836.3291931415,
        "Argument of Periapsis(deg)": 0.02196044420920792,
        "Eccentricity": 0.0,
        "Inclination(deg)": 53.0,
        "Latitude(deg)": -53.12813176632383,
        "Longitude(deg)": 95.05088330824101,
        "Mean Anomaly(deg)": -91.41873417592694,
        "RAAN(deg)": 289.9673174851193,
        "Satellite Name": "Starlink Shell 1 1290",
        "Satellite Number": 1290,
        "Semi-Major Axis(m)": 6931778.249405717,
        "Time(s)": 630
    },
    {
        "Altitude(m)": 571842.2650705901,
        "Argument of Periapsis(deg)": 0.02230902268871916,
        "Eccentricity": 0.0,
        "Inclination(deg)": 53.0,
        "Latitude(deg)": -53.143765362205386,
        "Longitude(deg)": 96.0476579937243,
        "Mean Anomaly(deg)": -90.79190297237028,
        "RAAN(deg)": 289.96679871504176,
        "Satellite Name": "Starlink Shell 1 1290",
        "Satellite Number": 1290,
        "Semi-Major Axis(m)": 6931778.249405717,
        "Time(s)": 640
    },
    {
        "Altitude(m)": 571844.7208618167,
        "Argument of Periapsis(deg)": 0.022657601168230398,
        "Eccentricity": 0.0,
        "Inclination(deg)": 53.0,
        "Latitude(deg)": -53.15034984104962,
        "Longitude(deg)": 97.04496758219169,
        "Mean Anomaly(deg)": -90.16507176881348,
        "RAAN(deg)": 289.9662799449643,
        "Satellite Name": "Starlink Shell 1 1290",
        "Satellite Number": 1290,
        "Semi-Major Axis(m)": 6931778.249405717,
        "Time(s)": 650
    },
    {
        "Altitude(m)": 571843.695565038,
        "Argument of Periapsis(deg)": 0.023006179647741636,
        "Eccentricity": 0.0,
        "Inclination(deg)": 53.0,
        "Latitude(deg)": -53.14788031686385,
        "Longitude(deg)": 98.04237614316376,
        "Mean Anomaly(deg)": -89.53824056525677,
        "RAAN(deg)": 289.96576117488684,
        "Satellite Name": "Starlink Shell 1 1290",
        "Satellite Number": 1290,
        "Semi-Major Axis(m)": 6931778.249405717,
        "Time(s)": 660
    },
    {
        "Altitude(m)": 571839.1895681279,
        "Argument of Periapsis(deg)": 0.023354758127252868,
        "Eccentricity": 0.0,
        "Inclination(deg)": 53.0,
        "Latitude(deg)": -53.13635862174428,
        "Longitude(deg)": 99.03944795375706,
        "Mean Anomaly(deg)": -88.9114093617001,
        "RAAN(deg)": 289.9652424048093,
        "Satellite Name": "Starlink Shell 1 1290",
        "Satellite Number": 1290,
        "Semi-Major Axis(m)": 6931778.249405717,
        "Time(s)": 670
    },
    {
        "Altitude(m)": 571831.2046484813,
        "Argument of Periapsis(deg)": 0.023703336606764106,
        "Eccentricity": 0.0,
        "Inclination(deg)": 53.0,
        "Latitude(deg)": -53.11579329915652,
        "Longitude(deg)": 100.03574779471974,
        "Mean Anomaly(deg)": -88.28457815814328,
        "RAAN(deg)": 289.9647236347319,
        "Satellite Name": "Starlink Shell 1 1290",
        "Satellite Number": 1290,
        "Semi-Major Axis(m)": 6931778.249405717,
        "Time(s)": 680
    },
    {
        "Altitude(m)": 571819.7439722407,
        "Argument of Periapsis(deg)": 0.024051915086275345,
        "Eccentricity": 0.0,
        "Inclination(deg)": 53.0,
        "Latitude(deg)": -53.08619957264416,
        "Longitude(deg)": 101.0308427519264,
        "Mean Anomaly(deg)": -87.6577469545866,
        "RAAN(deg)": 289.9642048646544,
        "Satellite Name": "Starlink Shell 1 1290",
        "Satellite Number": 1290,
        "Semi-Major Axis(m)": 6931778.249405717,
        "Time(s)": 690
    },
    {
        "Altitude(m)": 571804.812092922,
        "Argument of Periapsis(deg)": 0.024400493565786583,
        "Eccentricity": 0.0,
        "Inclination(deg)": 53.0,
        "Latitude(deg)": -53.04759929023362,
        "Longitude(deg)": 102.02430400096969,
        "Mean Anomaly(deg)": -87.03091575102994,
        "RAAN(deg)": 289.96368609457693,
        "Satellite Name": "Starlink Shell 1 1290",
        "Satellite Number": 1290,
        "Semi-Major Axis(m)": 6931778.249405717,
        "Time(s)": 700
    },
    {
        "Altitude(m)": 571786.4149494634,
        "Argument of Periapsis(deg)": 0.024749072045297815,
        "Eccentricity": 0.0,
        "Inclination(deg)": 53.0,
        "Latitude(deg)": -53.00002084500994,
        "Longitude(deg)": 103.01570705271052,
        "Mean Anomaly(deg)": -86.40408454747319,
        "RAAN(deg)": 289.9631673244995,
        "Satellite Name": "Starlink Shell 1 1290",
        "Satellite Number": 1290,
        "Semi-Major Axis(m)": 6931778.249405717,
        "Time(s)": 710
    },
    {
        "Altitude(m)": 571764.5598636459,
        "Argument of Periapsis(deg)": 0.025097650524809053,
        "Eccentricity": 0.0,
        "Inclination(deg)": 53.0,
        "Latitude(deg)": -52.943499072538756,
        "Longitude(deg)": 104.00463347662568,
        "Mean Anomaly(deg)": -85.77725334391641,
        "RAAN(deg)": 289.962648554422,
        "Satellite Name": "Starlink Shell 1 1290",
        "Satellite Number": 1290,
        "Semi-Major Axis(m)": 6931778.249405717,
        "Time(s)": 720
    },
    {
        "Altitude(m)": 571739.2555369472,
        "Argument of Periapsis(deg)": 0.02544622900432029,
        "Eccentricity": 0.0,
        "Inclination(deg)": 53.0,
        "Latitude(deg)": -52.878075125996915,
        "Longitude(deg)": 104.99067258064393,
        "Mean Anomaly(deg)": -85.15042214035975,
        "RAAN(deg)": 289.9621297843445,
        "Satellite Name": "Starlink Shell 1 1290",
        "Satellite Number": 1290,
        "Semi-Major Axis(m)": 6931778.249405717,
        "Time(s)": 730
    },
    {
        "Altitude(m)": 571710.5120467676,
        "Argument of Periapsis(deg)": 0.02579480748383153,
        "Eccentricity": 0.0,
        "Inclination(deg)": 53.0,
        "Latitude(deg)": -52.80379633005163,
        "Longitude(deg)": 105.97342152674655,
        "Mean Anomaly(deg)": -84.52359093680313,
        "RAAN(deg)": 289.9616110142671,
        "Satellite Name": "Starlink Shell 1 1290",
        "Satellite Number": 1290,
        "Semi-Major Axis(m)": 6931778.249405717,
        "Time(s)": 740
    },
    {
        "Altitude(m)": 571678.3408420803,
        "Argument of Periapsis(deg)": 0.026143385963342765,
        "Eccentricity": 0.0,
        "Inclination(deg)": 53.0,
        "Latitude(deg)": -52.72071601468866,
        "Longitude(deg)": 106.95248690088552,
        "Mean Anomaly(deg)": -83.89675973324636,
        "RAAN(deg)": 289.96109224418956,
        "Satellite Name": "Starlink Shell 1 1290",
        "Satellite Number": 1290,
        "Semi-Major Axis(m)": 6931778.249405717,
        "Time(s)": 750
    }
]